satname,norad_id,inclination_deg,eccentricity,mean_motion_rev_per_day,perigee_km,apogee_km,l1,l2
STARLINK-1202,45183,53.1616,0.0001394,15.30203961,474.24788698299017,476.15859824263043,1 45183U 20012F   26083.38433372 -.00001159  00000+0 -27013-4 0  9992,2 45183  53.1616 330.9969 0001394  86.1848 273.9312 15.30203961337208
STARLINK-1216,45185,53.1588,0.00013,15.301902,474.3533910360502,476.13527018200784,1 45185U 20012H   26082.98296893  .00001605  00000+0  66321-4 0  9993,2 45185  53.1588 332.8411 0001300  95.7038 264.4111 15.30190200337084
STARLINK-1225,45187,53.1585,0.0001091,15.30194039,474.4851652960333,475.98057060121937,1 45187U 20012K   26082.97986906 -.00003450  00000+0 -10442-3 0  9999,2 45187  53.1585 333.2944 0001091  91.5912 268.5214 15.30194039337129
STARLINK-1230,45189,53.1605,0.0001414,15.30191224,474.2722054108599,476.21034078649245,1 45189U 20012M   26083.38126104  .00000740  00000+0  37130-4 0  9994,2 45189  53.1605 331.4913 0001414  96.5111 263.6051 15.30191224334412
STARLINK-1234,45190,53.0424,0.0005501,15.65098019,369.24309619019186,376.6706496691904,1 45190U 20012N   26082.90193281  .00055769  00000+0  55660-3 0  9991,2 45190  53.0424 255.6501 0005501 338.6959  21.3825 15.65098019338107
STARLINK-1269,45197,53.1584,0.0001219,15.30219572,474.3212150843847,475.99204807176284,1 45197U 20012V   26082.98617308 -.00011917  00000+0 -39062-3 0  9994,2 45197  53.1584 333.1854 0001219  88.2112 271.9028 15.30219572337104
STARLINK-1154,45198,53.0476,0.0006047,15.48268666,417.67872876700767,425.90256126088843,1 45198U 20012W   26082.89592246  .00036401  00000+0  68346-3 0  9998,2 45198  53.0476 302.1091 0006047 145.5049 214.6351 15.48268666337495
STARLINK-1199,45201,53.1584,0.0001214,15.30189918,474.4131720235591,476.07717321507243,1 45201U 20012Z   26082.89015961  .00001364  00000+0  58187-4 0  9990,2 45201  53.1584 317.8776 0001214  96.1625 263.9514 15.30189918337330
STARLINK-1209,45206,53.0455,0.0007528,15.5352893,401.3247986090728,411.5396460301981,1 45206U 20012AE  26083.48200098  .00038727  00000+0  60250-3 0  9994,2 45206  53.0455 262.1978 0007528 320.7450  39.3013 15.53528930337215
STARLINK-1231,45212,53.0437,0.0004075,15.22262636,496.21508578898556,501.8199667278859,1 45212U 20012AL  26083.32560822  .00021060  00000+0  91511-3 0  9994,2 45212  53.0437 308.5046 0004075 144.9349 215.1915 15.22262636337455
STARLINK-1271,45217,53.1579,0.0001276,15.30191851,474.3649101436731,476.11389180120113,1 45217U 20012AR  26082.88807689  .00001695  00000+0  69365-4 0  9999,2 45217  53.1579 318.0117 0001276  79.8168 280.2977 15.30191851337335
STARLINK-1191,45222,53.1601,3.34e-05,15.31333568,471.60373877823804,472.0613167426927,1 45222U 20012AW  26083.55598806  .00031839  00000+0  10452-2 0  9992,2 45222  53.1601 289.7163 0000334 144.5085 215.5939 15.31333568337797
STARLINK-1212,45223,53.0479,0.0004631,15.54697776,399.8909405129871,406.17165859203214,1 45223U 20012AX  26083.51872379  .00062906  00000+0  93132-3 0  9995,2 45223  53.0479 278.5525 0004631 179.3371 180.7646 15.54697776337940
STARLINK-1215,45225,53.1597,0.000135,15.30189386,474.3215542855769,476.1719679010721,1 45225U 20012AZ  26083.54747563  .00003581  00000+0  13300-3 0  9999,2 45225  53.1597 289.2911 0001350  91.4197 268.6958 15.30189386337755
STARLINK-1221,45227,53.065,0.0003632,15.42457529,436.3829467647447,441.3348125717366,1 45227U 20012BB  26083.03924591  .00016759  00000+0  38980-3 0  9995,2 45227  53.0650 201.5894 0003632  67.4101 292.7288 15.42457529338920
STARLINK-1222,45228,53.0551,0.0003496,15.50460754,413.00482562238267,417.7548525962884,1 45228U 20012BC  26083.25770229  .00023083  00000+0  40507-3 0  9993,2 45228  53.0551 272.9170 0003496 130.2440 229.8875 15.50460754337883
STARLINK-1226,45229,53.1617,0.000126,15.31359833,470.8911167624892,472.6172893456587,1 45229U 20012BD  26083.31037752  .00048224  00000+0  15723-2 0  9993,2 45229  53.1617 290.6475 0001260  84.2699 275.8446 15.31359833337658
STARLINK-1227,45230,53.1563,2.39e-05,15.31970853,469.7690466198119,470.0963843522122,1 45230U 20012BE  26082.86862849  .00033963  00000+0  10920-2 0  9995,2 45230  53.1563 292.8803 0000239 121.1392 238.9633 15.31970853337700
STARLINK-1246,45235,53.1615,0.0001734,15.30198643,474.03074922830365,476.40749313112883,1 45235U 20012BK  26083.38749902 -.00000862  00000+0 -16984-4 0  9994,2 45235  53.1615 330.9789 0001734 120.5663 239.5509 15.30198643337229
STARLINK-1270,45237,53.0477,0.000251,15.4918622,417.39929215041684,420.8115078352139,1 45237U 20012BM  26083.23622535  .00055985  00000+0  10117-2 0  9996,2 45237  53.0477 277.9414 0002510 161.3293 198.7807 15.49186220337928
STARLINK-1279,45360,53.0418,0.0001984,15.59831703,386.8013024710499,389.486162665733,1 45360U 20019A   26083.12617424  .00086912  00000+0  10574-2 0  9990,2 45360  53.0418  28.5176 0001984 147.8114 212.3019 15.59831703332927
STARLINK-1301,45361,53.0429,5.68e-05,15.66656013,368.09707809279644,368.8634938164805,1 45361U 20019B   26083.14938142  .00063308  00000+0  59279-3 0  9996,2 45361  53.0429  33.0168 0000568 196.7145 163.3851 15.66656013332876
STARLINK-1262,45366,53.1576,0.0001211,15.29362953,476.88523699023244,478.5457244610652,1 45366U 20019G   26082.33011614  .00000247  00000+0  20900-4 0  9990,2 45366  53.1576 101.8297 0001211  78.2566 281.8570 15.29362953331845
STARLINK-1273,45367,53.0521,0.0004092,15.46171519,425.1529232157445,430.7230149704501,1 45367U 20019H   26083.21574246  .00046604  00000+0  93739-3 0  9990,2 45367  53.0521  85.6015 0004092  52.0172 308.1204 15.46171519332141
STARLINK-1277,45369,53.0518,0.0005918,15.51200607,409.2004076788562,417.2386572706946,1 45369U 20019K   26083.26528148  .00056845  00000+0  95597-3 0  9999,2 45369  53.0518  82.6605 0005918  58.5416 301.6171 15.51200607332194
STARLINK-1281,45370,53.1609,0.0001634,15.30201318,474.0912970266054,476.33097119683316,1 45370U 20019L   26083.30193784  .00001257  00000+0  54577-4 0  9991,2 45370  53.1609  97.4141 0001634  97.6278 262.4908 15.30201318331994
STARLINK-1300,45374,53.1617,0.0001405,15.30189081,474.2847712326429,476.2105723254135,1 45374U 20019Q   26083.45471417 -.00001388  00000+0 -34758-4 0  9999,2 45374  53.1617  96.7114 0001405  70.3934 289.7218 15.30189081332014
STARLINK-1302,45375,53.0511,0.0003704,15.56075748,396.5171026637154,401.5376260248222,1 45375U 20019R   26083.16773808  .00070064  00000+0  98458-3 0  9998,2 45375  53.0511  81.7768 0003704   8.3877 351.7195 15.56075748332192
STARLINK-1304,45376,53.0496,0.0003785,15.50522723,412.62755146700783,417.77010668962066,1 45376U 20019S   26083.28690489  .00055248  00000+0  95250-3 0  9999,2 45376  53.0496  79.5068 0003785  39.8866 320.2419 15.50522723332238
STARLINK-1305,45377,53.0449,0.0003788,15.55603888,397.8300604214255,402.9654783627175,1 45377U 20019T   26083.17648992  .00060698  00000+0  86987-3 0  9992,2 45377  53.0449  62.2699 0003788 122.5467 237.5909 15.55603888332473
STARLINK-1319,45379,53.0448,0.0003017,15.66927502,365.66575584230577,369.7361944765171,1 45379U 20019V   26083.47635375  .00057359  00000+0  53205-3 0  9995,2 45379  53.0448  57.0214 0003017  92.6582 267.4778 15.66927502332570
STARLINK-1266,45383,53.0505,0.0005119,15.4757437,420.3423592706222,427.30620723241555,1 45383U 20019Z   26083.19847144  .00049620  00000+0  94989-3 0  9994,2 45383  53.0505  63.6969 0005119  65.0034 295.1504 15.47574370332441
STARLINK-1267,45384,53.0512,0.0001882,15.52113837,409.27771502749056,411.83297882687293,1 45384U 20019AA  26083.18242779  .00057149  00000+0  93067-3 0  9998,2 45384  53.0512  57.3544 0001882 350.6213   9.4760 15.52113837332537
STARLINK-1272,45386,53.0451,0.0002609,15.58439228,390.40723409110797,393.9399821664301,1 45386U 20019AC  26083.16891628  .00041827  00000+0  54277-3 0  9997,2 45386  53.0451  39.4921 0002609 142.1682 217.9514 15.58439228332784
STARLINK-1274,45387,53.029,0.0002163,15.49328618,417.21875279005417,420.1590596770902,1 45387U 20019AD  26083.18155845  .00064711  00000+0  11610-2 0  9994,2 45387  53.0290  33.5392 0002163 266.7720  93.3040 15.49328618332863
STARLINK-1280,45388,53.0431,0.0001855,15.67267147,365.47516682839705,367.9775111271574,1 45388U 20019AE  26083.19818448  .00060960  00000+0  55724-3 0  9998,2 45388  53.0431  51.1277 0001855 105.6425 254.4795 15.67267147332618
STARLINK-1283,45389,53.0455,9.67e-05,15.62952199,378.48120649477914,379.7880628289222,1 45389U 20019AF  26083.58335647  .00026501  00000+0  29205-3 0  9995,2 45389  53.0455  37.5738 0000967  85.4187 205.5251 15.62952199  5825
STARLINK-1284,45390,53.0484,0.0005082,15.54163857,401.13730456201665,408.03126247458476,1 45390U 20019AG  26083.22171947  .00061118  00000+0  92298-3 0  9994,2 45390  53.0484  60.9317 0005082  70.6554 289.5005 15.54163857332489
STARLINK-1297,45395,53.0476,0.0005924,15.56818823,392.857168902613,400.88419800596967,1 45395U 20019AM  26083.40217894  .00071218  00000+0  97296-3 0  9996,2 45395  53.0476  59.5065 0005924  73.2561 286.9099 15.56818823331701
STARLINK-1307,45397,53.0559,0.000304,15.50764136,412.428822435083,416.55874195065735,1 45397U 20019AP  26083.18687596  .00023977  00000+0  41593-3 0  9991,2 45397  53.0559  61.1448 0003040  69.1785 290.9549 15.50764136332301
STARLINK-1255,45399,53.0428,0.0002054,15.54349402,402.6514370139312,405.437557172937,1 45399U 20019AR  26083.16684687  .00063181  00000+0  94758-3 0  9991,2 45399  53.0428  32.9242 0002054  69.8056 290.3174 15.54349402332686
STARLINK-1260,45404,53.1617,0.000116,15.30522251,473.45817759989586,475.0479320926206,1 45404U 20019AW  26083.19712167  .00032913  00000+0  11074-2 0  9994,2 45404  53.1617  61.8492 0001160  89.7088 270.4046 15.30522251332197
STARLINK-1263,45405,53.1612,0.0001689,15.30192131,474.08102980269723,476.3961000685322,1 45405U 20019AX  26083.18601356 -.00000107  00000+0  85270-5 0  9994,2 45405  53.1612  61.9365 0001689  55.4070 304.7090 15.30192131332190
